[{"OBJECT_NAME":"STARLINK-30361","OBJECT_ID":"2023-131M","EPOCH":"2026-03-09T22:00:01.999584","MEAN_MOTION":15.12419132,"ECCENTRICITY":0.0001562,"INCLINATION":42.9992,"RA_OF_ASC_NODE":170.2609,"ARG_OF_PERICENTER":271.7692,"MEAN_ANOMALY":21.2571,"EPHEMERIS_TYPE":0,"CLASSIFICATION_TYPE":"U","NORAD_CAT_ID":57743,"ELEMENT_SET_NO":999,"REV_AT_EPOCH":578,"BSTAR":0.070351527,"MEAN_MOTION_DOT":0.01353414,"MEAN_MOTION_DDOT":0},{"OBJECT_NAME":"CZ-6A DEB","OBJECT_ID":"2022-151VT","EPOCH":"2026-03-09T17:17:01.578624","MEAN_MOTION":15.13055612,"ECCENTRICITY":0.00307053,"INCLINATION":98.6048,"RA_OF_ASC_NODE":145.9599,"ARG_OF_PERICENTER":176.0049,"MEAN_ANOMALY":184.143,"EPHEMERIS_TYPE":0,"CLASSIFICATION_TYPE":"U","NORAD_CAT_ID":55202,"ELEMENT_SET_NO":999,"REV_AT_EPOCH":17179,"BSTAR":0.0062201193,"MEAN_MOTION_DOT":0.00112789,"MEAN_MOTION_DDOT":0}]
